[{"OBJECT_NAME":"SALSAT","OBJECT_ID":"2020-068K","EPOCH":"2026-03-09T22:26:21.804576","MEAN_MOTION":15.28191989,"ECCENTRICITY":0.00082652,"INCLINATION":97.8859,"RA_OF_ASC_NODE":66.0795,"ARG_OF_PERICENTER":295.8051,"MEAN_ANOMALY":64.2334,"EPHEMERIS_TYPE":0,"CLASSIFICATION_TYPE":"U","NORAD_CAT_ID":46495,"ELEMENT_SET_NO":999,"REV_AT_EPOCH":30019,"BSTAR":0.00040842582,"MEAN_MOTION_DOT":0.00011156,"MEAN_MOTION_DDOT":0},{"OBJECT_NAME":"STARLINK-35909","OBJECT_ID":"2025-263M","EPOCH":"2026-03-09T03:33:02.133504","MEAN_MOTION":15.27576793,"ECCENTRICITY":0.0001837,"INCLINATION":43.0014,"RA_OF_ASC_NODE":353.9595,"ARG_OF_PERICENTER":274.0825,"MEAN_ANOMALY":85.9817,"EPHEMERIS_TYPE":0,"CLASSIFICATION_TYPE":"U","NORAD_CAT_ID":66496,"ELEMENT_SET_NO":999,"REV_AT_EPOCH":1881,"BSTAR":0.0013924103,"MEAN_MOTION_DOT":0.0003825,"MEAN_MOTION_DDOT":0}]
